#dP2020  6 18  0  0  0.00000000      96 __u+U ITR00 FIT  IAC
## 2110 345600.00000000   900.00000000 59018 0.0000000000000
+  117   C01C02C03C04C05C06C07C08C09C10C11C12C13C14C16C19C20
+        C21C22C23C24C25C26C27C28C29C30C32C33C34C35C36C37C38
+        C45E01E02E03E04E05E07E08E09E11E12E13E14E15E18E19E21
+        E24E25E26E27E30E31E33E36G01G02G03G04G05G06G07G08G09
+        G10G11G12G13G14G15G16G17G18G19G20G21G22G24G25G26G27
+        G28G29G30G31G32J01J02J03J07R01R02R03R04R05R07R08R09
+        R11R12R13R14R15R16R17R18R19R20R21R22R23R24R26  0  0
++        13 13 13 13 13  8  8  8  8  0  8  7  8  8  8  7  8
++         8  7  8  7  8  8  8  8  9  8  8  8  8  8  8  8 10
++         9  4  4  5  5  5  4  5  4  5  5  4  5  5  4  5  4
++         5  4  5  4  4  5  5  5  3  3  3  3  3  3  3  3  3
++         3  4  3  3  3  3  3  3  3  4  3  3  3  3  3  4  3
++         4  3  3  3  3  8  8  8 17  6  5  5  5  5  5  5  5
++         5  5  6  5  6  6  6  5  6  6  6  9  5  5  8  0  0
%c M  cc GPS ccc cccc cccc cccc cccc ccccc ccccc ccccc ccccc
%c cc cc ccc ccc cccc cccc cccc cccc ccccc ccccc ccccc ccccc
%f  0.0000000  0.000000000  0.00000000000  0.000000000000000
%f  0.0000000  0.000000000  0.00000000000  0.000000000000000
%i    0    0    0    0      0      0      0      0         0
%i    0    0    0    0      0      0      0      0         0
/* INFORMATION & ANALYSIS CENTER (IAC)            RAPID DATA
/* S/V CLOCKS ARE ALIGNED TO GNSS TIME                      
/* G:C1WC2W R:C1PC2P E:C1XC5X C:C2IC6I J:C1CC2S             
/* PCV:IGS14_2101 OL/AL:FES2004  NONE     YN ORB:CoN CLK:CoN
*  2020 06 18 18 30  0.00000000
PC01 -34388.805895  24419.609269    380.174971   -406.245020
PC02   4451.333647  41924.898555   -137.572039    273.698491
PC03 -14725.104895  39529.943490   -873.122868    857.204345
PC04 -39608.026897  14494.237236   -538.967988   -158.522062
PC05  21952.988724  36007.601011     49.364486   -479.930195
PC06 -19838.630394  22368.823195  29974.768663    757.420041
PC07 -18924.975959  37900.891124   2913.464275     35.977051
PC08  -4906.125737  26977.810332 -31842.022014   -319.693571
PC09  -1252.157397  24651.623321  34434.710156    618.774505
PC10      0.000000      0.000000      0.000000 999999.999999
PC11  27161.012596   6281.998661   -192.798721   -436.674354
PC12  16528.944526  14875.775200 -16817.127407    404.918504
PC13   6880.244864  35195.439030 -21894.204830    497.524727
PC14  19135.057022   -239.376231  20322.462653    550.234427
PC16 -17052.328609  22676.939264  31212.455650   -614.926796
PC19 -21820.217340   9595.835921 -14497.374071    448.240265
PC20 -14055.993271  -7945.513235 -22741.013266   -850.583024
PC21  -2461.341050  21445.107557  17723.927224   -544.678696
PC22 -17143.029992  21919.771472   2349.589515   -783.795421
PC23   7542.138405 -19491.413449 -18480.283603   -852.112746
PC24  15780.640197  19011.933892 -12958.730802   -788.328444
PC25  16461.780934  -1259.521624 -22498.032120   -656.359657
PC26   6913.998625  26822.141771   3264.848860    722.996024
PC27  -6466.360728 -16635.825350  21427.038323    349.724434
PC28  14326.428103 -11615.395842  20939.289344   -211.951922
PC29 -26659.365921    845.704686  -8211.014297    244.238487
PC30 -23647.262371 -11201.372263   9663.997346    333.917419
PC32   2279.742936 -21432.949661 -17697.136854   -878.124757
PC33  21774.922979  -9569.611123  14588.165555   -811.181299
PC34  23917.862655  11061.422473  -9229.225607   -823.248525
PC35 -14092.193284  12077.733447 -20834.544801   -790.605115
PC36 -16554.439408    611.620480  22483.577636   -848.733855
PC37  -5868.675369 -27005.836257  -3878.522118   -853.298173
PC38  -3193.308743  30610.190679 -28762.018034     84.189146
PC45  -7402.329542  19474.200806  18570.563257    158.976399
PE01  16333.667208 -10290.206501 -22436.717502   -880.443667
PE02 -16320.226830  10392.970222  22398.764697    141.336517
PE03 -27749.028565  10077.318489  -2266.213514   -311.263427
PE04  16883.676808 -18946.033445 -15221.765687   -548.524738
PE05 -22464.324201  -4827.761016 -18654.356350   -370.514017
PE07   4096.686601  16807.638050  24032.417066   -397.412402
PE08 -16602.617268  19024.841451  15468.053021   6161.921243
PE09  -4282.586209 -16585.288971 -24127.499840   6024.294252
PE11 -13591.767298 -21900.025854  14526.598130   3543.602426
PE12   6304.851065 -15382.258560  24485.980591   5748.747694
PE13  13507.362026  21820.348370 -14757.343938    401.690636
PE14 -25330.589276  -3618.215634   6817.707728  -1054.170321
PE15  -5964.203135  15490.576971 -24506.242688    863.049124
PE18  20564.720113  13560.233700 -17999.932642  -1155.400814
PE19  27974.270646  -8667.539822   4310.870332      6.350799
PE21  14123.949438  11874.087602 -23147.877158   -605.312683
PE24  -3315.407462 -27644.430084  10056.631674   5395.744743
PE25 -14080.939817 -12004.744997  23107.447677   -512.346557
PE26  25069.081381  15202.941849   4072.779748   3058.084438
PE27   3625.659221  27503.565504 -10322.738408    195.699524
PE30  -9310.743531  26671.374103   8823.621928   3815.752913
PE31   8940.526201 -26905.078721  -8487.683106   -472.918019
PE33  21950.446378    -50.154692  19863.998768   -465.943160
PE36 -25046.813950 -15337.547625  -3657.847136    545.269327
PG01  20031.469538  12061.812343  12687.429721     11.712328
PG02 -12527.362774 -22263.465675   7997.720552   -474.158570
PG03  15206.411567   2190.824832  21591.561651   -213.034838
PG04  26046.897080    845.315189   5230.281490   -104.111908
PG05  -4696.736641 -20570.314155 -16150.327345    -14.911792
PG06  -2220.376389 -20728.564317  16480.424610   -290.677199
PG07  14697.197234  -5527.945322 -21164.123014   -307.484515
PG08  20440.246463   7467.935205 -15391.412378    -38.011654
PG09  24613.782615  -8129.288752  -5881.643583   -238.633065
PG10 -11530.942194  23602.860707  -2831.686892   -375.111109
PG11  23278.313125  12361.690816  -1714.371831   -245.099430
PG12 -14692.251374  -3125.690493  21654.731662    104.541668
PG13 -12843.866981 -13146.519046 -19326.355081     19.421284
PG14  -2916.595641  15434.121657  21751.229155     -4.940524
PG15 -21611.985522  -6005.076054 -14822.262715   -223.374720
PG16   4080.533594  18939.104437 -18180.764660   -172.066714
PG17  12809.104344 -13834.271430  19111.545090    282.776221
PG18 -14414.766421   5706.158467 -21580.429415    223.739609
PG19   4787.141367 -14503.609146  21424.316480   -143.461941
PG20 -14939.583929  16837.911886 -13998.813359    527.485058
PG21  -5359.180887  15504.900312 -20215.818118     13.210823
PG22  12871.017707  10834.129822  20790.437354   -777.271717
PG24 -21205.988746 -12349.894418  10412.422195    -14.496082
PG25 -16990.871121   8123.575374  18386.500050     14.349331
PG26  -3491.091017  25172.226764  -7348.841861    227.779219
PG27  10240.652032  12878.288379 -21066.573769   -323.926551
PG28  12386.524206 -23565.379624   -349.840778    707.488420
PG29 -26248.864030   3452.632061  -2357.898849   -130.844185
PG30   6586.255002 -15939.330704 -20100.012875   -244.405896
PG31   2774.771538  21482.063316  15014.150149    -49.985169
PG32 -11233.408075  15079.642607  18785.763437    302.324752
PJ01 -28742.564420  30937.559353   3761.323522   -285.271404
PJ02 -26778.018070  25468.300735  25199.856661     -0.596838
PJ03 -30944.854870  17396.923265 -18041.814860     -4.253142
PJ07 -25402.987735  33661.873231     29.157250      0.015341
PR01  21044.638493 -12047.405077   7893.864893     63.265256
PR02  13020.499630 -17711.204769 -12941.983964    432.228102
PR03  -2672.472980 -11533.140630 -22552.924382     17.007411
PR04 -16564.821776   1352.301078 -19318.344729     53.213514
PR05 -21151.369294  13281.755151  -5121.094475     52.548702
PR07   3315.614293  11139.480118  22743.377158    -37.686637
PR08  16640.552128  -1207.599545  19357.999573    -52.940228
PR09    362.616459  24730.241093   6410.861238    138.762185
PR11  11505.920529   9087.845443 -20871.933095    -27.557914
PR12   9143.519269  -9392.122346 -21858.137894    140.130884
PR13   1475.456840 -23278.955585 -10330.798690    -40.149927
PR14  -6871.172918 -23384.886018   7504.553163     52.420608
PR15 -11248.870878  -9996.981223  20615.759873    106.887849
PR16  -8966.374422  10081.221379  21602.659616     -4.244751
PR17 -14304.092184 -13814.409115  16000.339406    334.163344
PR18 -23458.616562  -9940.237484    264.887006     39.293993
PR19 -20342.973260  -1590.182967 -15314.013314    -98.526191
PR20  -3841.772372   9650.491708 -23296.351491   -414.602788
PR21  15044.973782  13761.329999 -15317.073921   -132.280760
PR22  23828.570225   8998.354813   2279.230824  34997.062844
PR23  15756.059474  -2985.620457  19824.176825    313.020441
PR24   3247.942189 -10417.702732  23066.697875      3.129317
PR26  -8637.111423   7454.733384 -22810.010839   -392.782403
EOF
